{"type": "FeatureCollection", "features": [ {"type": "Feature", "properties": {"norad_id": 39778, "name": "IRIDIUM 33 DEB", "group": "iridium-33-debris", "lat": 50.074738361451274, "lon": 48.41335400417425, "alt_km": 701.4623744208529, "timestamp": "2025-12-10T18:57:00.451063+00:00", "meta": {"OBJECT_NAME": "IRIDIUM 33 DEB", "OBJECT_ID": "1997-051AAK", "EPOCH": "2025-12-09T14:38:46.743072", "MEAN_MOTION": 14.5422784, "ECCENTRICITY": 0.000831, "INCLINATION": 86.3774, "RA_OF_ASC_NODE": 44.5837, "ARG_OF_PERICENTER": 51.0952, "MEAN_ANOMALY": 309.0995, "EPHEMERIS_TYPE": 0, "CLASSIFICATION_TYPE": "U", "NORAD_CAT_ID": 39778, "ELEMENT_SET_NO": 999, "REV_AT_EPOCH": 60647, "BSTAR": 0.0013888, "MEAN_MOTION_DOT": 5.904e-05, "MEAN_MOTION_DDOT": 0}, "tle": {"line1": "1 39778U 97051AAK 25343.61026323  .00005904  00000+0  13888-2 0  9993", "line2": "2 39778  86.3774  44.5837 0008310  51.0952 309.0995 14.54227840606471"}}, "geometry": {"type": "Point", "coordinates": [48.41335400417425, 50.074738361451274]}}, {"type": "Feature", "properties": {"norad_id": 39781, "name": "IRIDIUM 33 DEB", "group": "iridium-33-debris", "lat": 43.496915962893524, "lon": -97.76291555790682, "alt_km": 890.2952083921064, "timestamp": "2025-12-10T18:57:00.451074+00:00", "meta": {"OBJECT_NAME": "IRIDIUM 33 DEB", "OBJECT_ID": "1997-051AAN", "EPOCH": "2025-12-10T12:50:43.071072", "MEAN_MOTION": 14.20526294, "ECCENTRICITY": 0.0177648, "INCLINATION": 86.3688, "RA_OF_ASC_NODE": 258.8875, "ARG_OF_PERICENTER": 280.3091, "MEAN_ANOMALY": 261.6771, "EPHEMERIS_TYPE": 0, "CLASSIFICATION_TYPE": "U", "NORAD_CAT_ID": 39781, "ELEMENT_SET_NO": 999, "REV_AT_EPOCH": 8075, "BSTAR": 0.0089106, "MEAN_MOTION_DOT": 0.00022501, "MEAN_MOTION_DDOT": 0}, "tle": {"line1": "1 39781U 97051AAN 25344.53522073  .00022501  00000+0  89106-2 0  9990", "line2": "2 39781  86.3688 258.8875 0177648 280.3091 261.6771 14.20526294 80753"}}, "geometry": {"type": "Point", "coordinates": [-97.76291555790682, 43.496915962893524]}}, {"type": "Feature", "properties": {"norad_id": 39783, "name": "IRIDIUM 33 DEB", "group": "iridium-33-debris", "lat": -80.67200243293307, "lon": -128.03772261446926, "alt_km": 482.0019939422209, "timestamp": "2025-12-10T18:57:00.451084+00:00", "meta": {"OBJECT_NAME": "IRIDIUM 33 DEB", "OBJECT_ID": "1997-051AAQ", "EPOCH": "2025-11-16T15:05:40.850592", "MEAN_MOTION": 15.19327111, "ECCENTRICITY": 0.00057535, "INCLINATION": 86.1306, "RA_OF_ASC_NODE": 268.8004, "ARG_OF_PERICENTER": 179.9151, "MEAN_ANOMALY": 1.8316, "EPHEMERIS_TYPE": 0, "CLASSIFICATION_TYPE": "U", "NORAD_CAT_ID": 39783, "ELEMENT_SET_NO": 999, "REV_AT_EPOCH": 60401, "BSTAR": 0.010398125, "MEAN_MOTION_DOT": 0.00226179, "MEAN_MOTION_DDOT": 0}, "tle": {"line1": "1 39783U 97051AAQ 25320.62894503  .00226179  00000+0  10398-1 0  9999", "line2": "2 39783  86.1306 268.8004 0005753 179.9151   1.8316 15.19327111604018"}}, "geometry": {"type": "Point", "coordinates": [-128.03772261446926, -80.67200243293307]}}, {"type": "Feature", "properties": {"norad_id": 40996, "name": "IRIDIUM 33 DEB", "group": "iridium-33-debris", "lat": 41.19952790637112, "lon": 5.522297546539798, "alt_km": 568.4282146163705, "timestamp": "2025-12-10T18:57:00.451094+00:00", "meta": {"OBJECT_NAME": "IRIDIUM 33 DEB", "OBJECT_ID": "1997-051ABJ", "EPOCH": "2025-12-09T19:28:10.178688", "MEAN_MOTION": 14.95954954, "ECCENTRICITY": 0.00121472, "INCLINATION": 86.3518, "RA_OF_ASC_NODE": 2.7772, "ARG_OF_PERICENTER": 71.5463, "MEAN_ANOMALY": 104.382, "EPHEMERIS_TYPE": 0, "CLASSIFICATION_TYPE": "U", "NORAD_CAT_ID": 40996, "ELEMENT_SET_NO": 999, "REV_AT_EPOCH": 62444, "BSTAR": 0.0038127414, "MEAN_MOTION_DOT": 0.00042994, "MEAN_MOTION_DDOT": 0}, "tle": {"line1": "1 40996U 97051ABJ 25343.81122892  .00042994  00000+0  38127-2 0  9990", "line2": "2 40996  86.3518   2.7772 0012147  71.5463 104.3820 14.95954954624440"}}, "geometry": {"type": "Point", "coordinates": [5.522297546539798, 41.19952790637112]}}, {"type": "Feature", "properties": {"norad_id": 40998, "name": "IRIDIUM 33 DEB", "group": "iridium-33-debris", "lat": 45.58318814258469, "lon": -129.21293060809157, "alt_km": 733.0892346730916, "timestamp": "2025-12-10T18:57:00.451105+00:00", "meta": {"OBJECT_NAME": "IRIDIUM 33 DEB", "OBJECT_ID": "1997-051ABL", "EPOCH": "2025-12-09T22:57:49.203072", "MEAN_MOTION": 14.45082428, "ECCENTRICITY": 0.00095723, "INCLINATION": 86.3826, "RA_OF_ASC_NODE": 54.8444, "ARG_OF_PERICENTER": 91.708, "MEAN_ANOMALY": 32.8835, "EPHEMERIS_TYPE": 0, "CLASSIFICATION_TYPE": "U", "NORAD_CAT_ID": 40998, "ELEMENT_SET_NO": 999, "REV_AT_EPOCH": 6641, "BSTAR": 0.00070534207, "MEAN_MOTION_DOT": 2.485e-05, "MEAN_MOTION_DDOT": 0}, "tle": {"line1": "1 40998U 97051ABL 25343.95681948  .00002485  00000+0  70534-3 0  9999", "line2": "2 40998  86.3826  54.8444 0009572  91.7080  32.8835 14.45082428 66416"}}, "geometry": {"type": "Point", "coordinates": [-129.21293060809157, 45.58318814258469]}}, {"type": "Feature", "properties": {"norad_id": 46435, "name": "IRIDIUM 33 DEB", "group": "iridium-33-debris", "lat": 86.0550122308102, "lon": -55.690693632690504, "alt_km": 924.8432641405161, "timestamp": "2025-12-10T18:57:00.451114+00:00", "meta": {"OBJECT_NAME": "IRIDIUM 33 DEB", "OBJECT_ID": "1997-051ABN", "EPOCH": "2025-12-08T08:41:01.195296", "MEAN_MOTION": 14.31888327, "ECCENTRICITY": 0.02102864, "INCLINATION": 86.2835, "RA_OF_ASC_NODE": 195.8323, "ARG_OF_PERICENTER": 290.5462, "MEAN_ANOMALY": 252.8586, "EPHEMERIS_TYPE": 0, "CLASSIFICATION_TYPE": "U", "NORAD_CAT_ID": 46435, "ELEMENT_SET_NO": 999, "REV_AT_EPOCH": 7853, "BSTAR": 0.0090831914, "MEAN_MOTION_DOT": 0.00031152, "MEAN_MOTION_DDOT": 0}, "tle": {"line1": "1 46435U 97051ABN 25342.36181939  .00031152  00000+0  90832-2 0  9995", "line2": "2 46435  86.2835 195.8323 0210286 290.5462 252.8586 14.31888327 78538"}}, "geometry": {"type": "Point", "coordinates": [-55.690693632690504, 86.0550122308102]}}, {"type": "Feature", "properties": {"norad_id": 46734, "name": "IRIDIUM 33 DEB", "group": "iridium-33-debris", "lat": -35.08508657039055, "lon": -173.6472556742661, "alt_km": 775.7380666387144, "timestamp": "2025-12-10T18:57:00.451125+00:00", "meta": {"OBJECT_NAME": "IRIDIUM 33 DEB", "OBJECT_ID": "1997-051ABR", "EPOCH": "2025-12-03T20:12:35.443296", "MEAN_MOTION": 14.41795233, "ECCENTRICITY": 0.00394426, "INCLINATION": 86.2642, "RA_OF_ASC_NODE": 6.7702, "ARG_OF_PERICENTER": 5.4679, "MEAN_ANOMALY": 171.2392, "EPHEMERIS_TYPE": 0, "CLASSIFICATION_TYPE": "U", "NORAD_CAT_ID": 46734, "ELEMENT_SET_NO": 999, "REV_AT_EPOCH": 62882, "BSTAR": 0.0014594249, "MEAN_MOTION_DOT": 4.83e-05, "MEAN_MOTION_DDOT": 0}, "tle": {"line1": "1 46734U 97051ABR 25337.84207689  .00004830  00000+0  14594-2 0  9999", "line2": "2 46734  86.2642   6.7702 0039442   5.4679 171.2392 14.41795233628829"}}, "geometry": {"type": "Point", "coordinates": [-173.6472556742661, -35.08508657039055]}}, {"type": "Feature", "properties": {"norad_id": 46965, "name": "IRIDIUM 33 DEB", "group": "iridium-33-debris", "lat": -43.76099397124386, "lon": 165.08104853241127, "alt_km": 704.8940756833481, "timestamp": "2025-12-10T18:57:00.451135+00:00", "meta": {"OBJECT_NAME": "IRIDIUM 33 DEB", "OBJECT_ID": "1997-051ABX", "EPOCH": "2025-12-09T11:22:29.536608", "MEAN_MOTION": 14.60256222, "ECCENTRICITY": 0.0018504, "INCLINATION": 86.3353, "RA_OF_ASC_NODE": 342.1454, "ARG_OF_PERICENTER": 344.7825, "MEAN_ANOMALY": 167.4281, "EPHEMERIS_TYPE": 0, "CLASSIFICATION_TYPE": "U", "NORAD_CAT_ID": 46965, "ELEMENT_SET_NO": 999, "REV_AT_EPOCH": 62220, "BSTAR": 0.0013057124, "MEAN_MOTION_DOT": 6.336e-05, "MEAN_MOTION_DDOT": 0}, "tle": {"line1": "1 46965U 97051ABX 25343.47395297  .00006336  00000+0  13057-2 0  9990", "line2": "2 46965  86.3353 342.1454 0018504 344.7825 167.4281 14.60256222622205"}}, "geometry": {"type": "Point", "coordinates": [165.08104853241127, -43.76099397124386]}}, {"type": "Feature", "properties": {"norad_id": 46971, "name": "IRIDIUM 33 DEB", "group": "iridium-33-debris", "lat": 40.15318474987214, "lon": -22.872510406315822, "alt_km": 569.5766063684923, "timestamp": "2025-12-10T18:57:00.451145+00:00", "meta": {"OBJECT_NAME": "IRIDIUM 33 DEB", "OBJECT_ID": "1997-051ACD", "EPOCH": "2025-12-09T17:53:50.411040", "MEAN_MOTION": 14.9771662, "ECCENTRICITY": 0.00041979, "INCLINATION": 86.3387, "RA_OF_ASC_NODE": 334.5212, "ARG_OF_PERICENTER": 335.9126, "MEAN_ANOMALY": 199.6728, "EPHEMERIS_TYPE": 0, "CLASSIFICATION_TYPE": "U", "NORAD_CAT_ID": 46971, "ELEMENT_SET_NO": 999, "REV_AT_EPOCH": 64185, "BSTAR": 0.0038941985, "MEAN_MOTION_DOT": 0.00045901, "MEAN_MOTION_DDOT": 0}, "tle": {"line1": "1 46971U 97051ACD 25343.74572235  .00045901  00000+0  38942-2 0  9997", "line2": "2 46971  86.3387 334.5212 0004197 335.9126 199.6728 14.97716620641853"}}, "geometry": {"type": "Point", "coordinates": [-22.872510406315822, 40.15318474987214]}}, {"type": "Feature", "properties": {"norad_id": 46974, "name": "IRIDIUM 33 DEB", "group": "iridium-33-debris", "lat": 50.40867139274545, "lon": 110.61496172692323, "alt_km": 793.8427061880693, "timestamp": "2025-12-10T18:57:00.451156+00:00", "meta": {"OBJECT_NAME": "IRIDIUM 33 DEB", "OBJECT_ID": "1997-051ACG", "EPOCH": "2025-12-08T01:51:35.109216", "MEAN_MOTION": 14.44143429, "ECCENTRICITY": 0.0095872, "INCLINATION": 86.2996, "RA_OF_ASC_NODE": 107.3101, "ARG_OF_PERICENTER": 202.1724, "MEAN_ANOMALY": 157.532, "EPHEMERIS_TYPE": 0, "CLASSIFICATION_TYPE": "U", "NORAD_CAT_ID": 46974, "ELEMENT_SET_NO": 999, "REV_AT_EPOCH": 57441, "BSTAR": 0.006255, "MEAN_MOTION_DOT": 0.00022746, "MEAN_MOTION_DDOT": 0}, "tle": {"line1": "1 46974U 97051ACG 25342.07748969  .00022746  00000+0  62550-2 0  9998", "line2": "2 46974  86.2996 107.3101 0095872 202.1724 157.5320 14.44143429574414"}}, "geometry": {"type": "Point", "coordinates": [110.61496172692323, 50.40867139274545]}}]}